TELESAT_L_00003001-01
1 10000U 22289EV  26075.69978009  .00000000  00000+0  00000-0 0  9991
2 10000  31.0000   0.0000 0000000   0.0000   0.0000 12.86611895    15
TELESAT_L_00003001-02
1 10001U 25712TH  26075.69978009  .00000000  00000+0  00000-0 0  9996
2 10001  31.0000   0.0000 0000000   0.0000  40.0000 12.86611895    10
TELESAT_L_00003001-03
1 10002U 24451JL  26075.69978009  .00000000  00000+0  00000-0 0  9996
2 10002  31.0000   0.0000 0000000   0.0000  80.0000 12.86611895    15
TELESAT_L_00003001-04
1 10003U 25819UE  26075.69978009  .00000000  00000+0  00000-0 0  9996
2 10003  31.0000   0.0000 0000000   0.0000 120.0000 12.86611895    11
TELESAT_L_00003001-05
1 10004U 26999QD  26075.69978009  .00000000  00000+0  00000-0 0  9997
2 10004  31.0000   0.0000 0000000   0.0000 160.0000 12.86611895    16
TELESAT_L_00003001-06
1 10005U 24824KK  26075.69978009  .00000000  00000+0  00000-0 0  9993
2 10005  31.0000   0.0000 0000000   0.0000 200.0000 12.86611895    12
TELESAT_L_00003001-07
1 10006U 26691BH  26075.69978009  .00000000  00000+0  00000-0 0  9998
2 10006  31.0000   0.0000 0000000   0.0000 240.0000 12.86611895    17
TELESAT_L_00003001-08
1 10007U 26637NE  26075.69978009  .00000000  00000+0  00000-0 0  9999
2 10007  31.0000   0.0000 0000000   0.0000 280.0000 12.86611895    12
TELESAT_L_00003001-09
1 10008U 24312DQ  26075.69978009  .00000000  00000+0  00000-0 0  9998
2 10008  31.0000   0.0000 0000000   0.0000 320.0000 12.86611895    18
TELESAT_L_00003002-01
1 10009U 26301YB  26075.69978009  .00000000  00000+0  00000-0 0  9999
2 10009  31.0000  90.0000 0000000   0.0000  40.0000 12.86611895    17
TELESAT_L_00003002-02
1 10010U 24153WR  26075.69978009  .00000000  00000+0  00000-0 0  9994
2 10010  31.0000  90.0000 0000000   0.0000  80.0000 12.86611895    13
TELESAT_L_00003002-03
1 10011U 23454XG  26075.69978009  .00000000  00000+0  00000-0 0  9998
2 10011  31.0000  90.0000 0000000   0.0000 120.0000 12.86611895    19
TELESAT_L_00003002-04
1 10012U 25043XR  26075.69978009  .00000000  00000+0  00000-0 0  9995
2 10012  31.0000  90.0000 0000000   0.0000 160.0000 12.86611895    14
TELESAT_L_00003002-05
1 10013U 25774QA  26075.69978009  .00000000  00000+0  00000-0 0  9997
2 10013  31.0000  90.0000 0000000   0.0000 200.0000 12.86611895    10
TELESAT_L_00003002-06
1 10014U 25606ZR  26075.69978009  .00000000  00000+0  00000-0 0  9992
2 10014  31.0000  90.0000 0000000   0.0000 240.0000 12.86611895    15
TELESAT_L_00003002-07
1 10015U 25051NU  26075.69978009  .00000000  00000+0  00000-0 0  9997
2 10015  31.0000  90.0000 0000000   0.0000 280.0000 12.86611895    10
TELESAT_L_00003002-08
1 10016U 26504VC  26075.69978009  .00000000  00000+0  00000-0 0  9992
2 10016  31.0000  90.0000 0000000   0.0000 320.0000 12.86611895    16
TELESAT_L_00003002-09
1 10017U 22343SS  26075.69978009  .00000000  00000+0  00000-0 0  9990
2 10017  31.0000  90.0000 0000000   0.0000   0.0000 12.86611895    12
TELESAT_L_00003003-01
1 10018U 24757AX  26075.69978009  .00000000  00000+0  00000-0 0  9992
2 10018  31.0000 180.0000 0000000   0.0000  80.0000 12.86611895    11
TELESAT_L_00003003-02
1 10019U 26602YG  26075.69978009  .00000000  00000+0  00000-0 0  9994
2 10019  31.0000 180.0000 0000000   0.0000 120.0000 12.86611895    17
TELESAT_L_00003003-03
1 10020U 24530DP  26075.69978009  .00000000  00000+0  00000-0 0  9994
2 10020  31.0000 180.0000 0000000   0.0000 160.0000 12.86611895    13
TELESAT_L_00003003-04
1 10021U 25309RY  26075.69978009  .00000000  00000+0  00000-0 0  9990
2 10021  31.0000 180.0000 0000000   0.0000 200.0000 12.86611895    19
TELESAT_L_00003003-05
1 10022U 22615PJ  26075.69978009  .00000000  00000+0  00000-0 0  9998
2 10022  31.0000 180.0000 0000000   0.0000 240.0000 12.86611895    14
TELESAT_L_00003003-06
1 10023U 22665QX  26075.69978009  .00000000  00000+0  00000-0 0  9994
2 10023  31.0000 180.0000 0000000   0.0000 280.0000 12.86611895    19
TELESAT_L_00003003-07
1 10024U 26925HZ  26075.69978009  .00000000  00000+0  00000-0 0  9998
2 10024  31.0000 180.0000 0000000   0.0000 320.0000 12.86611895    15
TELESAT_L_00003003-08
1 10025U 24312EE  26075.69978009  .00000000  00000+0  00000-0 0  9997
2 10025  31.0000 180.0000 0000000   0.0000   0.0000 12.86611895    11
TELESAT_L_00003003-09
1 10026U 24109TD  26075.69978009  .00000000  00000+0  00000-0 0  9992
2 10026  31.0000 180.0000 0000000   0.0000  40.0000 12.86611895    16
TELESAT_L_00003004-01
1 10027U 22677NA  26075.69978009  .00000000  00000+0  00000-0 0  9991
2 10027  31.0000 270.0000 0000000   0.0000 120.0000 12.86611895    16
TELESAT_L_00003004-02
1 10028U 25346BH  26075.69978009  .00000000  00000+0  00000-0 0  9998
2 10028  31.0000 270.0000 0000000   0.0000 160.0000 12.86611895    11
TELESAT_L_00003004-03
1 10029U 26755TA  26075.69978009  .00000000  00000+0  00000-0 0  9994
2 10029  31.0000 270.0000 0000000   0.0000 200.0000 12.86611895    17
TELESAT_L_00003004-04
1 10030U 24929PN  26075.69978009  .00000000  00000+0  00000-0 0  9997
2 10030  31.0000 270.0000 0000000   0.0000 240.0000 12.86611895    13
TELESAT_L_00003004-05
1 10031U 23962SR  26075.69978009  .00000000  00000+0  00000-0 0  9994
2 10031  31.0000 270.0000 0000000   0.0000 280.0000 12.86611895    18
TELESAT_L_00003004-06
1 10032U 26667M   26075.69978009  .00000000  00000+0  00000-0 0  9990
2 10032  31.0000 270.0000 0000000   0.0000 320.0000 12.86611895    14
TELESAT_L_00003004-07
1 10033U 24793VO  26075.69978009  .00000000  00000+0  00000-0 0  9999
2 10033  31.0000 270.0000 0000000   0.0000   0.0000 12.86611895    10
TELESAT_L_00003004-08
1 10034U 23054NY  26075.69978009  .00000000  00000+0  00000-0 0  9999
2 10034  31.0000 270.0000 0000000   0.0000  40.0000 12.86611895    15
TELESAT_L_00003004-09
1 10035U 22248YT  26075.69978009  .00000000  00000+0  00000-0 0  9994
2 10035  31.0000 270.0000 0000000   0.0000  80.0000 12.86611895    10
